{
  "type": "FeatureCollection",
  "features": [
    {
      "type": "Feature",
      "properties": {
        "norad_id": 31431,
        "name": "FENGYUN 1C DEB",
        "group": "fengyun-1c-debris",
        "lat": -11.852550780808377,
        "lon": -129.88264115249902,
        "alt_km": 944.8333820916432,
        "timestamp": "2025-12-05T16:54:14.929733+00:00",
        "meta_object_name": "FENGYUN 1C DEB",
        "meta_object_id": "1999-025BTT",
        "meta_epoch": "2025-12-05T03:16:10.257312",
        "meta_mean_motion": 14.03026719,
        "meta_eccentricity": 0.01330779,
        "meta_inclination": 98.54,
        "meta_ra_of_asc_node": 227.777,
        "meta_arg_of_pericenter": 116.6342,
        "meta_mean_anomaly": 244.8528,
        "meta_ephemeris_type": 0,
        "meta_classification_type": "U",
        "meta_norad_cat_id": 31431,
        "meta_element_set_no": 999,
        "meta_rev_at_epoch": 94425,
        "meta_bstar": 0.0025562851,
        "meta_mean_motion_dot": 4.256e-05,
        "meta_mean_motion_ddot": 0,
        "tle_line1": "1 31431U 99025BTT 25339.13622983  .00004256  00000+0  25563-2 0  9992",
        "tle_line2": "2 31431  98.5400 227.7770 0133077 116.6342 244.8528 14.03026719944256"
      },
      "geometry": {
        "type": "Point",
        "coordinates": [
          -129.88264115249902,
          -11.852550780808377
        ]
      }
    },
    {
      "type": "Feature",
      "properties": {
        "norad_id": 31433,
        "name": "FENGYUN 1C DEB",
        "group": "fengyun-1c-debris",
        "lat": 70.81749807930426,
        "lon": -141.70815382162547,
        "alt_km": 734.2930993716482,
        "timestamp": "2025-12-05T16:54:14.929741+00:00",
        "meta_object_name": "FENGYUN 1C DEB",
        "meta_object_id": "1999-025BTV",
        "meta_epoch": "2025-12-05T07:03:15.220224",
        "meta_mean_motion": 14.25293553,
        "meta_eccentricity": 0.01002089,
        "meta_inclination": 98.4108,
        "meta_ra_of_asc_node": 243.067,
        "meta_arg_of_pericenter": 50.7639,
        "meta_mean_anomaly": 76.8611,
        "meta_ephemeris_type": 0,
        "meta_classification_type": "U",
        "meta_norad_cat_id": 31433,
        "meta_element_set_no": 999,
        "meta_rev_at_epoch": 95446,
        "meta_bstar": 0.004539339,
        "meta_mean_motion_dot": 0.00011236,
        "meta_mean_motion_ddot": 0,
        "tle_line1": "1 31433U 99025BTV 25339.29392616  .00011236  00000+0  45393-2 0  9997",
        "tle_line2": "2 31433  98.4108 243.0670 0100208  50.7639  76.8611 14.25293553954465"
      },
      "geometry": {
        "type": "Point",
        "coordinates": [
          -141.70815382162547,
          70.81749807930426
        ]
      }
    },
    {
      "type": "Feature",
      "properties": {
        "norad_id": 31435,
        "name": "FENGYUN 1C DEB",
        "group": "fengyun-1c-debris",
        "lat": 21.724158557505636,
        "lon": -25.384894536541708,
        "alt_km": 636.9701455335644,
        "timestamp": "2025-12-05T16:54:14.929750+00:00",
        "meta_object_name": "FENGYUN 1C DEB",
        "meta_object_id": "1999-025BTX",
        "meta_epoch": "2025-12-03T17:54:29.292768",
        "meta_mean_motion": 14.53396512,
        "meta_eccentricity": 0.01486288,
        "meta_inclination": 99.0374,
        "meta_ra_of_asc_node": 148.8682,
        "meta_arg_of_pericenter": 207.1752,
        "meta_mean_anomaly": 152.1608,
        "meta_ephemeris_type": 0,
        "meta_classification_type": "U",
        "meta_norad_cat_id": 31435,
        "meta_element_set_no": 999,
        "meta_rev_at_epoch": 98242,
        "meta_bstar": 0.00043649672,
        "meta_mean_motion_dot": 2.041e-05,
        "meta_mean_motion_ddot": 0,
        "tle_line1": "1 31435U 99025BTX 25337.74617237  .00002041  00000+0  43650-3 0  9995",
        "tle_line2": "2 31435  99.0374 148.8682 0148628 207.1752 152.1608 14.53396512982427"
      },
      "geometry": {
        "type": "Point",
        "coordinates": [
          -25.384894536541708,
          21.724158557505636
        ]
      }
    },
    {
      "type": "Feature",
      "properties": {
        "norad_id": 31436,
        "name": "FENGYUN 1C DEB",
        "group": "fengyun-1c-debris",
        "lat": -8.269899766215799,
        "lon": 10.444530735242306,
        "alt_km": 586.4662543920904,
        "timestamp": "2025-12-05T16:54:14.929760+00:00",
        "meta_object_name": "FENGYUN 1C DEB",
        "meta_object_id": "1999-025BTY",
        "meta_epoch": "2025-12-04T12:58:15.356064",
        "meta_mean_motion": 14.9239624,
        "meta_eccentricity": 0.0045621,
        "meta_inclination": 98.8798,
        "meta_ra_of_asc_node": 190.4353,
        "meta_arg_of_pericenter": 269.1396,
        "meta_mean_anomaly": 149.6903,
        "meta_ephemeris_type": 0,
        "meta_classification_type": "U",
        "meta_norad_cat_id": 31436,
        "meta_element_set_no": 999,
        "meta_rev_at_epoch": 96754,
        "meta_bstar": 0.010966,
        "meta_mean_motion_dot": 0.00116284,
        "meta_mean_motion_ddot": 0,
        "tle_line1": "1 31436U 99025BTY 25338.54045551  .00116284  00000+0  10966-1 0  9996",
        "tle_line2": "2 31436  98.8798 190.4353 0045621 269.1396 149.6903 14.92396240967540"
      },
      "geometry": {
        "type": "Point",
        "coordinates": [
          10.444530735242306,
          -8.269899766215799
        ]
      }
    },
    {
      "type": "Feature",
      "properties": {
        "norad_id": 31437,
        "name": "FENGYUN 1C DEB",
        "group": "fengyun-1c-debris",
        "lat": -80.86031124121635,
        "lon": 164.52688475443406,
        "alt_km": 747.668555954946,
        "timestamp": "2025-12-05T16:54:14.929770+00:00",
        "meta_object_name": "FENGYUN 1C DEB",
        "meta_object_id": "1999-025BTZ",
        "meta_epoch": "2025-12-03T03:43:35.676192",
        "meta_mean_motion": 14.42268403,
        "meta_eccentricity": 0.00147172,
        "meta_inclination": 98.8658,
        "meta_ra_of_asc_node": 57.8503,
        "meta_arg_of_pericenter": 275.1536,
        "meta_mean_anomaly": 84.7972,
        "meta_ephemeris_type": 0,
        "meta_classification_type": "U",
        "meta_norad_cat_id": 31437,
        "meta_element_set_no": 999,
        "meta_rev_at_epoch": 96372,
        "meta_bstar": 0.0031577834,
        "meta_mean_motion_dot": 0.00010397,
        "meta_mean_motion_ddot": 0,
        "tle_line1": "1 31437U 99025BTZ 25337.15527403  .00010397  00000+0  31578-2 0  9995",
        "tle_line2": "2 31437  98.8658  57.8503 0014717 275.1536  84.7972 14.42268403963729"
      },
      "geometry": {
        "type": "Point",
        "coordinates": [
          164.52688475443406,
          -80.86031124121635
        ]
      }
    },
    {
      "type": "Feature",
      "properties": {
        "norad_id": 31439,
        "name": "FENGYUN 1C DEB",
        "group": "fengyun-1c-debris",
        "lat": 20.24477602312533,
        "lon": 169.27398837476403,
        "alt_km": 815.7762451303506,
        "timestamp": "2025-12-05T16:54:14.929778+00:00",
        "meta_object_name": "FENGYUN 1C DEB",
        "meta_object_id": "1999-025BUB",
        "meta_epoch": "2025-12-03T18:31:58.136160",
        "meta_mean_motion": 13.95552286,
        "meta_eccentricity": 0.01375894,
        "meta_inclination": 98.9169,
        "meta_ra_of_asc_node": 344.0849,
        "meta_arg_of_pericenter": 186.3936,
        "meta_mean_anomaly": 351.8228,
        "meta_ephemeris_type": 0,
        "meta_classification_type": "U",
        "meta_norad_cat_id": 31439,
        "meta_element_set_no": 999,
        "meta_rev_at_epoch": 63107,
        "meta_bstar": 0.0011086732,
        "meta_mean_motion_dot": 1.589e-05,
        "meta_mean_motion_ddot": 0,
        "tle_line1": "1 31439U 99025BUB 25337.77220065  .00001589  00000+0  11087-2 0  9995",
        "tle_line2": "2 31439  98.9169 344.0849 0137589 186.3936 351.8228 13.95552286631077"
      },
      "geometry": {
        "type": "Point",
        "coordinates": [
          169.27398837476403,
          20.24477602312533
        ]
      }
    },
    {
      "type": "Feature",
      "properties": {
        "norad_id": 31440,
        "name": "FENGYUN 1C DEB",
        "group": "fengyun-1c-debris",
        "lat": 37.14918207658814,
        "lon": -105.70817853792929,
        "alt_km": 786.6456141383997,
        "timestamp": "2025-12-05T16:54:14.929787+00:00",
        "meta_object_name": "FENGYUN 1C DEB",
        "meta_object_id": "1999-025BUC",
        "meta_epoch": "2025-12-05T04:32:40.273728",
        "meta_mean_motion": 14.36571049,
        "meta_eccentricity": 0.00367226,
        "meta_inclination": 98.7465,
        "meta_ra_of_asc_node": 67.0707,
        "meta_arg_of_pericenter": 5.5428,
        "meta_mean_anomaly": 354.6157,
        "meta_ephemeris_type": 0,
        "meta_classification_type": "U",
        "meta_norad_cat_id": 31440,
        "meta_element_set_no": 999,
        "meta_rev_at_epoch": 96217,
        "meta_bstar": 0.0037851683,
        "meta_mean_motion_dot": 0.00011182,
        "meta_mean_motion_ddot": 0,
        "tle_line1": "1 31440U 99025BUC 25339.18935502  .00011182  00000+0  37852-2 0  9991",
        "tle_line2": "2 31440  98.7465  67.0707 0036722   5.5428 354.6157 14.36571049962170"
      },
      "geometry": {
        "type": "Point",
        "coordinates": [
          -105.70817853792929,
          37.14918207658814
        ]
      }
    }
  ]
}